AFRICASAT-2 (MEASAT-2)  
1 24653U 96063B   26064.45580745 -.00000007  00000+0  00000+0 0  9996
2 24653  12.1028  29.7667 0005128 215.7085 158.6700  0.99649221107251
INMARSAT 3-F3           
1 24674U 96070A   26064.74697651 -.00000260  00000+0  00000+0 0  9995
2 24674  10.0955  50.6282 0006804 271.8906 259.8759  1.00001363106870
ATLAS 2A CENTAUR R/B    
1 24675U 96070B   26061.29189846 -.00000008  00000+0  00000+0 0  9995
2 24675  22.0196 182.2271 7026566 295.8400   9.4020  2.22632122237536
ISO DEB                 
1 24700U 95062C   26064.36210439 -.00000346  00000+0  00000+0 0  9993
2 24700   2.5249  28.8611 8224101  10.2749 321.4100  1.00165483 41941
IUS R/B(2)              
1 24740U 97008D   26063.69192950 -.00000285  00000+0  00000+0 0  9993
2 24740  14.5941   4.7587 0024296 196.4508 163.4727  0.99500606 24753
COSMOS 2340             
1 24761U 97015A   26062.30013520  .00000686  00000+0  00000+0 0  9990
2 24761  65.3085 158.4291 6426170 153.5272 263.1938  2.00733698211712
SL-6 R/B(2)             
1 24764U 97015D   26061.66607473  .00000812  00000+0  00000+0 0  9998
2 24764  66.4219  83.3554 6025753 135.7665 292.3624  2.03153204214366
THAICOM 3               
1 24768U 97016A   26064.51959441 -.00000021  00000+0  00000+0 0  9998
2 24768  12.8758  25.9431 0087517  45.4580 318.5628  0.98751998104923
GOES 10                 
1 24786U 97019A   26064.38749786 -.00000058  00000+0  00000+0 0  9995
2 24786  13.0052  21.8402 0030997 239.2527 133.5205  0.99122042105043
DFH 3-2                 
1 24798U 97021A   26063.90452039 -.00000367  00000+0  00000+0 0  9993
2 24798  13.4190  14.5766 0003438  94.5536 145.9813  1.00277919105473
COSMOS 2342             
1 24800U 97022A   26063.66264087  .00000588  00000+0  00000+0 0  9999
2 24800  67.5667 256.7670 6566399 129.9560 309.0888  1.99584734210326
SL-6 R/B(2)             
1 24803U 97022D   26064.33075968  .00000830  00000+0  00000+0 0  9995
2 24803  68.8341 302.0800 6056620  69.8890 343.2496  2.04227903214846
DELTA 2 R/B(2)          
1 24810U 97025C   26064.49177429 -.00000182  00000+0  00000+0 0  9999
2 24810  19.1046 226.0504 6932781 134.4132 316.2093  2.16110503227409
SL-12 R/B(2)            
1 24815U 97026D   26064.28722405 -.00000135  00000+0  00000+0 0  9990
2 24815  19.1677  20.4074 5346476  58.2570  69.6616  1.89868685199576
INMARSAT 3-F4           
1 24819U 97027A   26064.22101042 -.00000271  00000+0  00000+0 0  9998
2 24819  11.3365  38.5737 0007376  35.0390 140.4223  0.99502382105023
INSAT-2D                
1 24820U 97027B   26064.60981482 -.00000160  00000+0  00000+0 0  9993
2 24820  12.7503 346.3350 0333133 126.4492  40.7923  1.04791347 48412
PAS 6                   
1 24891U 97040A   26064.59141892 -.00000228  00000+0  00000+0 0  9992
2 24891   9.0265 328.7650 0681726 252.0431 332.3909  0.93698352 75934
