[{"OBJECT_NAME":"AFRICASAT-2 (MEASAT-2)","OBJECT_ID":"1996-063B","EPOCH":"2026-03-05T10:56:21.763680","MEAN_MOTION":0.99649221,"ECCENTRICITY":0.0005128,"INCLINATION":12.1028,"RA_OF_ASC_NODE":29.7667,"ARG_OF_PERICENTER":215.7085,"MEAN_ANOMALY":158.67,"EPHEMERIS_TYPE":0,"CLASSIFICATION_TYPE":"U","NORAD_CAT_ID":24653,"ELEMENT_SET_NO":999,"REV_AT_EPOCH":10725,"BSTAR":0,"MEAN_MOTION_DOT":-7.0e-8,"MEAN_MOTION_DDOT":0},{"OBJECT_NAME":"INMARSAT 3-F3","OBJECT_ID":"1996-070A","EPOCH":"2026-03-05T17:55:38.770464","MEAN_MOTION":1.00001363,"ECCENTRICITY":0.0006804,"INCLINATION":10.0955,"RA_OF_ASC_NODE":50.6282,"ARG_OF_PERICENTER":271.8906,"MEAN_ANOMALY":259.8759,"EPHEMERIS_TYPE":0,"CLASSIFICATION_TYPE":"U","NORAD_CAT_ID":24674,"ELEMENT_SET_NO":999,"REV_AT_EPOCH":10687,"BSTAR":0,"MEAN_MOTION_DOT":-2.6e-6,"MEAN_MOTION_DDOT":0},{"OBJECT_NAME":"ATLAS 2A CENTAUR R/B","OBJECT_ID":"1996-070B","EPOCH":"2026-03-02T07:00:20.026944","MEAN_MOTION":2.22632122,"ECCENTRICITY":0.70265669,"INCLINATION":22.0196,"RA_OF_ASC_NODE":182.2271,"ARG_OF_PERICENTER":295.84,"MEAN_ANOMALY":9.402,"EPHEMERIS_TYPE":0,"CLASSIFICATION_TYPE":"U","NORAD_CAT_ID":24675,"ELEMENT_SET_NO":999,"REV_AT_EPOCH":23753,"BSTAR":0,"MEAN_MOTION_DOT":-8.0e-8,"MEAN_MOTION_DDOT":0},{"OBJECT_NAME":"ISO DEB","OBJECT_ID":"1995-062C","EPOCH":"2026-03-05T08:41:25.819296","MEAN_MOTION":1.00165483,"ECCENTRICITY":0.8224101,"INCLINATION":2.5249,"RA_OF_ASC_NODE":28.8611,"ARG_OF_PERICENTER":10.2749,"MEAN_ANOMALY":321.41,"EPHEMERIS_TYPE":0,"CLASSIFICATION_TYPE":"U","NORAD_CAT_ID":24700,"ELEMENT_SET_NO":999,"REV_AT_EPOCH":4194,"BSTAR":0,"MEAN_MOTION_DOT":-3.46e-6,"MEAN_MOTION_DDOT":0},{"OBJECT_NAME":"IUS R/B(2)","OBJECT_ID":"1997-008D","EPOCH":"2026-03-04T16:36:22.708800","MEAN_MOTION":0.99500606,"ECCENTRICITY":0.0024296,"INCLINATION":14.5941,"RA_OF_ASC_NODE":4.7587,"ARG_OF_PERICENTER":196.4508,"MEAN_ANOMALY":163.4727,"EPHEMERIS_TYPE":0,"CLASSIFICATION_TYPE":"U","NORAD_CAT_ID":24740,"ELEMENT_SET_NO":999,"REV_AT_EPOCH":2475,"BSTAR":0,"MEAN_MOTION_DOT":-2.85e-6,"MEAN_MOTION_DDOT":0},{"OBJECT_NAME":"COSMOS 2340","OBJECT_ID":"1997-015A","EPOCH":"2026-03-03T07:12:11.681280","MEAN_MOTION":2.00733698,"ECCENTRICITY":0.64261707,"INCLINATION":65.3085,"RA_OF_ASC_NODE":158.4291,"ARG_OF_PERICENTER":153.5272,"MEAN_ANOMALY":263.1938,"EPHEMERIS_TYPE":0,"CLASSIFICATION_TYPE":"U","NORAD_CAT_ID":24761,"ELEMENT_SET_NO":999,"REV_AT_EPOCH":21171,"BSTAR":0,"MEAN_MOTION_DOT":6.86e-6,"MEAN_MOTION_DDOT":0},{"OBJECT_NAME":"SL-6 R/B(2)","OBJECT_ID":"1997-015D","EPOCH":"2026-03-02T15:59:08.856672","MEAN_MOTION":2.03153204,"ECCENTRICITY":0.60257533,"INCLINATION":66.4219,"RA_OF_ASC_NODE":83.3554,"ARG_OF_PERICENTER":135.7665,"MEAN_ANOMALY":292.3624,"EPHEMERIS_TYPE":0,"CLASSIFICATION_TYPE":"U","NORAD_CAT_ID":24764,"ELEMENT_SET_NO":999,"REV_AT_EPOCH":21436,"BSTAR":0,"MEAN_MOTION_DOT":8.12e-6,"MEAN_MOTION_DDOT":0},{"OBJECT_NAME":"THAICOM 3","OBJECT_ID":"1997-016A","EPOCH":"2026-03-05T12:28:12.957024","MEAN_MOTION":0.98751998,"ECCENTRICITY":0.0087517,"INCLINATION":12.8758,"RA_OF_ASC_NODE":25.9431,"ARG_OF_PERICENTER":45.458,"MEAN_ANOMALY":318.5628,"EPHEMERIS_TYPE":0,"CLASSIFICATION_TYPE":"U","NORAD_CAT_ID":24768,"ELEMENT_SET_NO":999,"REV_AT_EPOCH":10492,"BSTAR":0,"MEAN_MOTION_DOT":-2.1e-7,"MEAN_MOTION_DDOT":0},{"OBJECT_NAME":"GOES 10","OBJECT_ID":"1997-019A","EPOCH":"2026-03-05T09:17:59.815104","MEAN_MOTION":0.99122042,"ECCENTRICITY":0.0030997,"INCLINATION":13.0052,"RA_OF_ASC_NODE":21.8402,"ARG_OF_PERICENTER":239.2527,"MEAN_ANOMALY":133.5205,"EPHEMERIS_TYPE":0,"CLASSIFICATION_TYPE":"U","NORAD_CAT_ID":24786,"ELEMENT_SET_NO":999,"REV_AT_EPOCH":10504,"BSTAR":0,"MEAN_MOTION_DOT":-5.8e-7,"MEAN_MOTION_DDOT":0},{"OBJECT_NAME":"DFH 3-2","OBJECT_ID":"1997-021A","EPOCH":"2026-03-04T21:42:30.561696","MEAN_MOTION":1.00277919,"ECCENTRICITY":0.00034389,"INCLINATION":13.419,"RA_OF_ASC_NODE":14.5766,"ARG_OF_PERICENTER":94.5536,"MEAN_ANOMALY":145.9813,"EPHEMERIS_TYPE":0,"CLASSIFICATION_TYPE":"U","NORAD_CAT_ID":24798,"ELEMENT_SET_NO":999,"REV_AT_EPOCH":10547,"BSTAR":0,"MEAN_MOTION_DOT":-3.67e-6,"MEAN_MOTION_DDOT":0},{"OBJECT_NAME":"COSMOS 2342","OBJECT_ID":"1997-022A","EPOCH":"2026-03-04T15:54:12.171168","MEAN_MOTION":1.99584734,"ECCENTRICITY":0.6566399,"INCLINATION":67.5667,"RA_OF_ASC_NODE":256.767,"ARG_OF_PERICENTER":129.956,"MEAN_ANOMALY":309.0888,"EPHEMERIS_TYPE":0,"CLASSIFICATION_TYPE":"U","NORAD_CAT_ID":24800,"ELEMENT_SET_NO":999,"REV_AT_EPOCH":21032,"BSTAR":0,"MEAN_MOTION_DOT":5.88e-6,"MEAN_MOTION_DDOT":0},{"OBJECT_NAME":"SL-6 R/B(2)","OBJECT_ID":"1997-022D","EPOCH":"2026-03-05T07:56:17.636352","MEAN_MOTION":2.04227903,"ECCENTRICITY":0.605662,"INCLINATION":68.8341,"RA_OF_ASC_NODE":302.08,"ARG_OF_PERICENTER":69.889,"MEAN_ANOMALY":343.2496,"EPHEMERIS_TYPE":0,"CLASSIFICATION_TYPE":"U","NORAD_CAT_ID":24803,"ELEMENT_SET_NO":999,"REV_AT_EPOCH":21484,"BSTAR":0,"MEAN_MOTION_DOT":8.3e-6,"MEAN_MOTION_DDOT":0},{"OBJECT_NAME":"DELTA 2 R/B(2)","OBJECT_ID":"1997-025C","EPOCH":"2026-03-05T11:48:09.298656","MEAN_MOTION":2.16110503,"ECCENTRICITY":0.6932781,"INCLINATION":19.1046,"RA_OF_ASC_NODE":226.0504,"ARG_OF_PERICENTER":134.4132,"MEAN_ANOMALY":316.2093,"EPHEMERIS_TYPE":0,"CLASSIFICATION_TYPE":"U","NORAD_CAT_ID":24810,"ELEMENT_SET_NO":999,"REV_AT_EPOCH":22740,"BSTAR":0,"MEAN_MOTION_DOT":-1.82e-6,"MEAN_MOTION_DDOT":0},{"OBJECT_NAME":"SL-12 R/B(2)","OBJECT_ID":"1997-026D","EPOCH":"2026-03-05T06:53:36.157920","MEAN_MOTION":1.89868685,"ECCENTRICITY":0.5346476,"INCLINATION":19.1677,"RA_OF_ASC_NODE":20.4074,"ARG_OF_PERICENTER":58.257,"MEAN_ANOMALY":69.6616,"EPHEMERIS_TYPE":0,"CLASSIFICATION_TYPE":"U","NORAD_CAT_ID":24815,"ELEMENT_SET_NO":999,"REV_AT_EPOCH":19957,"BSTAR":0,"MEAN_MOTION_DOT":-1.35e-6,"MEAN_MOTION_DDOT":0},{"OBJECT_NAME":"INMARSAT 3-F4","OBJECT_ID":"1997-027A","EPOCH":"2026-03-05T05:18:15.300288","MEAN_MOTION":0.99502382,"ECCENTRICITY":0.0007376,"INCLINATION":11.3365,"RA_OF_ASC_NODE":38.5737,"ARG_OF_PERICENTER":35.039,"MEAN_ANOMALY":140.4223,"EPHEMERIS_TYPE":0,"CLASSIFICATION_TYPE":"U","NORAD_CAT_ID":24819,"ELEMENT_SET_NO":999,"REV_AT_EPOCH":10502,"BSTAR":0,"MEAN_MOTION_DOT":-2.71e-6,"MEAN_MOTION_DDOT":0},{"OBJECT_NAME":"INSAT-2D","OBJECT_ID":"1997-027B","EPOCH":"2026-03-05T14:38:08.000448","MEAN_MOTION":1.04791347,"ECCENTRICITY":0.03331332,"INCLINATION":12.7503,"RA_OF_ASC_NODE":346.335,"ARG_OF_PERICENTER":126.4492,"MEAN_ANOMALY":40.7923,"EPHEMERIS_TYPE":0,"CLASSIFICATION_TYPE":"U","NORAD_CAT_ID":24820,"ELEMENT_SET_NO":999,"REV_AT_EPOCH":4841,"BSTAR":0,"MEAN_MOTION_DOT":-1.6e-6,"MEAN_MOTION_DDOT":0},{"OBJECT_NAME":"PAS 6","OBJECT_ID":"1997-040A","EPOCH":"2026-03-05T14:11:38.594688","MEAN_MOTION":0.93698352,"ECCENTRICITY":0.0681726,"INCLINATION":9.0265,"RA_OF_ASC_NODE":328.765,"ARG_OF_PERICENTER":252.0431,"MEAN_ANOMALY":332.3909,"EPHEMERIS_TYPE":0,"CLASSIFICATION_TYPE":"U","NORAD_CAT_ID":24891,"ELEMENT_SET_NO":999,"REV_AT_EPOCH":7593,"BSTAR":0,"MEAN_MOTION_DOT":-2.28e-6,"MEAN_MOTION_DDOT":0}]
